KUIPER-00112            
1 65150U 25171U   25324.75002315  .00043667  00000+0  31481-2 0  9996
2 65150  51.8906 278.9058 0009875 147.9862 287.7625 15.03689224  5465
KUIPER-00114            
1 65151U 25171V   25324.19258250 -.00002585  00000+0 -30985-3 0  9991
2 65151  51.9006 299.8021 0006556 103.5356 256.6338 14.79933398 16429
KUIPER-00115            
1 65152U 25171W   25324.60588538  .00004914  00000+0  67255-3 0  9999
2 65152  51.9016 290.4521 0010634 127.9767 232.2158 14.79949384 16591
KUIPER-00116            
1 65153U 25171X   25324.75002315  .00041395  00000+0  54267-2 0  9992
2 65153  51.8995 294.8633 0010388  93.5835 163.5009 14.79891818  5282
KUIPER-00118            
1 65154U 25171Y   25324.63152014  .00026656  00000+0  35146-2 0  9990
2 65154  51.9004 297.8370 0001621 113.5051 246.6082 14.79898872 16495
KUIPER-00119            
1 65155U 25171Z   25324.75002315  .00025800  00000+0  34079-2 0  9996
2 65155  51.9002 284.9016 0007990 119.6762  80.6598 14.79821035  4974
KUIPER-00120            
1 65762U 25217A   25324.75002315 -.00041857  00000+0 -36689-2 0  9992
2 65762  51.8895 175.6123 0015617 293.0024  61.2544 14.96137611  1304
KUIPER-00132            
1 65763U 25217B   25324.59745545  .00048777  00000+0  13371-2 0  9993
2 65763  51.8622 171.8002 0006139 296.1818  63.8537 15.36794917  8637
